{
  "type": "FeatureCollection",
  "features": [
    {
      "type": "Feature",
      "properties": {
        "norad_id": 30232,
        "name": "FENGYUN 1C DEB",
        "group": "fengyun-1c-debris",
        "lat": -66.09914155287748,
        "lon": -23.679231197428905,
        "alt_km": 753.7633868702351,
        "timestamp": "2025-12-02T21:34:01.545967+00:00",
        "meta_object_name": "FENGYUN 1C DEB",
        "meta_object_id": "1999-025WR",
        "meta_epoch": "2025-12-02T12:21:56.685888",
        "meta_mean_motion": 14.63467341,
        "meta_eccentricity": 0.0136705,
        "meta_inclination": 98.6939,
        "meta_ra_of_asc_node": 176.1156,
        "meta_arg_of_pericenter": 21.3398,
        "meta_mean_anomaly": 8.7263,
        "meta_ephemeris_type": 0,
        "meta_classification_type": "U",
        "meta_norad_cat_id": 30232,
        "meta_element_set_no": 999,
        "meta_rev_at_epoch": 99602,
        "meta_bstar": 0.00073211,
        "meta_mean_motion_dot": 4.283e-05,
        "meta_mean_motion_ddot": 0,
        "tle_line1": "1 30232U 99025WR  25336.51523942  .00004283  00000+0  73211-3 0  9998",
        "tle_line2": "2 30232  98.6939 176.1156 0136705  21.3398   8.7263 14.63467341996022"
      },
      "geometry": {
        "type": "Point",
        "coordinates": [
          -23.679231197428905,
          -66.09914155287748
        ]
      }
    },
    {
      "type": "Feature",
      "properties": {
        "norad_id": 30234,
        "name": "FENGYUN 1C DEB",
        "group": "fengyun-1c-debris",
        "lat": 1.549474923270974,
        "lon": -12.269595338661853,
        "alt_km": 847.9472241688645,
        "timestamp": "2025-12-02T21:34:01.545977+00:00",
        "meta_object_name": "FENGYUN 1C DEB",
        "meta_object_id": "1999-025WT",
        "meta_epoch": "2025-12-02T12:06:24.403104",
        "meta_mean_motion": 14.1684277,
        "meta_eccentricity": 0.0067083,
        "meta_inclination": 98.6343,
        "meta_ra_of_asc_node": 347.5833,
        "meta_arg_of_pericenter": 104.1387,
        "meta_mean_anomaly": 48.8644,
        "meta_ephemeris_type": 0,
        "meta_classification_type": "U",
        "meta_norad_cat_id": 30234,
        "meta_element_set_no": 999,
        "meta_rev_at_epoch": 97311,
        "meta_bstar": 0.00040281,
        "meta_mean_motion_dot": 7.83e-06,
        "meta_mean_motion_ddot": 0,
        "tle_line1": "1 30234U 99025WT  25336.50444911  .00000783  00000+0  40281-3 0  9999",
        "tle_line2": "2 30234  98.6343 347.5833 0067083 104.1387  48.8644 14.16842770973113"
      },
      "geometry": {
        "type": "Point",
        "coordinates": [
          -12.269595338661853,
          1.549474923270974
        ]
      }
    },
    {
      "type": "Feature",
      "properties": {
        "norad_id": 30235,
        "name": "FENGYUN 1C DEB",
        "group": "fengyun-1c-debris",
        "lat": -67.27893896089252,
        "lon": 153.77109370439754,
        "alt_km": 764.9321693258544,
        "timestamp": "2025-12-02T21:34:01.545986+00:00",
        "meta_object_name": "FENGYUN 1C DEB",
        "meta_object_id": "1999-025WU",
        "meta_epoch": "2025-12-02T12:35:54.658752",
        "meta_mean_motion": 14.08754998,
        "meta_eccentricity": 0.0153219,
        "meta_inclination": 98.7503,
        "meta_ra_of_asc_node": 354.9889,
        "meta_arg_of_pericenter": 267.5886,
        "meta_mean_anomaly": 247.7174,
        "meta_ephemeris_type": 0,
        "meta_classification_type": "U",
        "meta_norad_cat_id": 30235,
        "meta_element_set_no": 999,
        "meta_rev_at_epoch": 96749,
        "meta_bstar": 0.00052721,
        "meta_mean_motion_dot": 9.69e-06,
        "meta_mean_motion_ddot": 0,
        "tle_line1": "1 30235U 99025WU  25336.52493818  .00000969  00000+0  52721-3 0  9990",
        "tle_line2": "2 30235  98.7503 354.9889 0153219 267.5886 247.7174 14.08754998967498"
      },
      "geometry": {
        "type": "Point",
        "coordinates": [
          153.77109370439754,
          -67.27893896089252
        ]
      }
    },
    {
      "type": "Feature",
      "properties": {
        "norad_id": 30237,
        "name": "FENGYUN 1C DEB",
        "group": "fengyun-1c-debris",
        "lat": 48.80410709921805,
        "lon": -90.43707151120759,
        "alt_km": 760.4422220380684,
        "timestamp": "2025-12-02T21:34:01.545996+00:00",
        "meta_object_name": "FENGYUN 1C DEB",
        "meta_object_id": "1999-025WW",
        "meta_epoch": "2025-12-02T06:12:41.610816",
        "meta_mean_motion": 14.40630837,
        "meta_eccentricity": 0.0013253,
        "meta_inclination": 98.8273,
        "meta_ra_of_asc_node": 78.6769,
        "meta_arg_of_pericenter": 338.1924,
        "meta_mean_anomaly": 75.7108,
        "meta_ephemeris_type": 0,
        "meta_classification_type": "U",
        "meta_norad_cat_id": 30237,
        "meta_element_set_no": 999,
        "meta_rev_at_epoch": 97547,
        "meta_bstar": 0.0028971,
        "meta_mean_motion_dot": 9.216e-05,
        "meta_mean_motion_ddot": 0,
        "tle_line1": "1 30237U 99025WW  25336.25881494  .00009216  00000+0  28971-2 0  9996",
        "tle_line2": "2 30237  98.8273  78.6769 0013253 338.1924  75.7108 14.40630837975477"
      },
      "geometry": {
        "type": "Point",
        "coordinates": [
          -90.43707151120759,
          48.80410709921805
        ]
      }
    },
    {
      "type": "Feature",
      "properties": {
        "norad_id": 30239,
        "name": "FENGYUN 1C DEB",
        "group": "fengyun-1c-debris",
        "lat": -64.73171402597306,
        "lon": -72.36352366146228,
        "alt_km": 3027.9222610247443,
        "timestamp": "2025-12-02T21:34:01.546006+00:00",
        "meta_object_name": "FENGYUN 1C DEB",
        "meta_object_id": "1999-025WY",
        "meta_epoch": "2025-12-02T09:36:22.595328",
        "meta_mean_motion": 11.37998366,
        "meta_eccentricity": 0.1345977,
        "meta_inclination": 99.596,
        "meta_ra_of_asc_node": 128.3012,
        "meta_arg_of_pericenter": 49.0064,
        "meta_mean_anomaly": 321.9784,
        "meta_ephemeris_type": 0,
        "meta_classification_type": "U",
        "meta_norad_cat_id": 30239,
        "meta_element_set_no": 999,
        "meta_rev_at_epoch": 54417,
        "meta_bstar": 0.010661,
        "meta_mean_motion_dot": 3.517e-05,
        "meta_mean_motion_ddot": 0,
        "tle_line1": "1 30239U 99025WY  25336.40026152  .00003517  00000+0  10661-1 0  9991",
        "tle_line2": "2 30239  99.5960 128.3012 1345977  49.0064 321.9784 11.37998366544171"
      },
      "geometry": {
        "type": "Point",
        "coordinates": [
          -72.36352366146228,
          -64.73171402597306
        ]
      }
    },
    {
      "type": "Feature",
      "properties": {
        "norad_id": 30241,
        "name": "FENGYUN 1C DEB",
        "group": "fengyun-1c-debris",
        "lat": 78.99061051656274,
        "lon": 53.698519211605706,
        "alt_km": 756.6526810935575,
        "timestamp": "2025-12-02T21:34:01.546016+00:00",
        "meta_object_name": "FENGYUN 1C DEB",
        "meta_object_id": "1999-025XA",
        "meta_epoch": "2025-12-02T07:41:17.635200",
        "meta_mean_motion": 14.09528045,
        "meta_eccentricity": 0.0146828,
        "meta_inclination": 99.1482,
        "meta_ra_of_asc_node": 109.0316,
        "meta_arg_of_pericenter": 110.0598,
        "meta_mean_anomaly": 281.7196,
        "meta_ephemeris_type": 0,
        "meta_classification_type": "U",
        "meta_norad_cat_id": 30241,
        "meta_element_set_no": 999,
        "meta_rev_at_epoch": 96765,
        "meta_bstar": 0.00036654,
        "meta_mean_motion_dot": 6.64e-06,
        "meta_mean_motion_ddot": 0,
        "tle_line1": "1 30241U 99025XA  25336.32034300  .00000664  00000+0  36654-3 0  9991",
        "tle_line2": "2 30241  99.1482 109.0316 0146828 110.0598 281.7196 14.09528045967653"
      },
      "geometry": {
        "type": "Point",
        "coordinates": [
          53.698519211605706,
          78.99061051656274
        ]
      }
    },
    {
      "type": "Feature",
      "properties": {
        "norad_id": 30242,
        "name": "FENGYUN 1C DEB",
        "group": "fengyun-1c-debris",
        "lat": 80.43984135837005,
        "lon": -103.54266768000015,
        "alt_km": 817.9838089699142,
        "timestamp": "2025-12-02T21:34:01.546026+00:00",
        "meta_object_name": "FENGYUN 1C DEB",
        "meta_object_id": "1999-025XB",
        "meta_epoch": "2025-12-02T00:56:18.960576",
        "meta_mean_motion": 14.17597809,
        "meta_eccentricity": 0.00114574,
        "meta_inclination": 98.6848,
        "meta_ra_of_asc_node": 10.4519,
        "meta_arg_of_pericenter": 83.8894,
        "meta_mean_anomaly": 306.1022,
        "meta_ephemeris_type": 0,
        "meta_classification_type": "U",
        "meta_norad_cat_id": 30242,
        "meta_element_set_no": 999,
        "meta_rev_at_epoch": 97275,
        "meta_bstar": 0.00067554613,
        "meta_mean_motion_dot": 1.331e-05,
        "meta_mean_motion_ddot": 0,
        "tle_line1": "1 30242U 99025XB  25336.03910834  .00001331  00000+0  67555-3 0  9991",
        "tle_line2": "2 30242  98.6848  10.4519 0011457  83.8894 306.1022 14.17597809972759"
      },
      "geometry": {
        "type": "Point",
        "coordinates": [
          -103.54266768000015,
          80.43984135837005
        ]
      }
    }
  ]
}